FENGYUN 1C DEB          
1 32448U 99025DBL 17346.56409875  .00002973  00000-0  93214-3 0  9994
2 32448  98.9819  97.0438 0024647 165.5905 260.1794 14.41215363528949
